[
    {
        "Altitude(m)": 703889.7392769151,
        "Argument of Periapsis(deg)": 0.007973084830638947,
        "Eccentricity": 0.0,
        "Inclination(deg)": 45.0,
        "Latitude(deg)": 27.619014647603933,
        "Longitude(deg)": 130.82635871224403,
        "Mean Anomaly(deg)": 40.80055165323657,
        "RAAN(deg)": 199.99247364097928,
        "Satellite Name": "Constellation 1 882",
        "Satellite Number": 882,
        "Semi-Major Axis(m)": 7083131.272910544,
        "Time(s)": 133
    },
    {
        "Altitude(m)": 703895.1143769386,
        "Argument of Periapsis(deg)": 0.008033032836884352,
        "Eccentricity": 0.0,
        "Inclination(deg)": 45.0,
        "Latitude(deg)": 27.655843854754746,
        "Longitude(deg)": 130.87679920797544,
        "Mean Anomaly(deg)": 40.86125279348645,
        "RAAN(deg)": 199.99241705181367,
        "Satellite Name": "Constellation 1 882",
        "Satellite Number": 882,
        "Semi-Major Axis(m)": 7083131.272910544,
        "Time(s)": 134
    },
    {
        "Altitude(m)": 703900.4963379978,
        "Argument of Periapsis(deg)": 0.008092980843129758,
        "Eccentricity": 0.0,
        "Inclination(deg)": 45.0,
        "Latitude(deg)": 27.692651397969307,
        "Longitude(deg)": 130.92727624347935,
        "Mean Anomaly(deg)": 40.92195393373636,
        "RAAN(deg)": 199.99236046264812,
        "Satellite Name": "Constellation 1 882",
        "Satellite Number": 882,
        "Semi-Major Axis(m)": 7083131.272910544,
        "Time(s)": 135
    },
    {
        "Altitude(m)": 703905.8851214628,
        "Argument of Periapsis(deg)": 0.008152928849375162,
        "Eccentricity": 0.0,
        "Inclination(deg)": 45.0,
        "Latitude(deg)": 27.729437229441327,
        "Longitude(deg)": 130.97778987888617,
        "Mean Anomaly(deg)": 40.9826550739863,
        "RAAN(deg)": 199.99230387348254,
        "Satellite Name": "Constellation 1 882",
        "Satellite Number": 882,
        "Semi-Major Axis(m)": 7083131.272910544,
        "Time(s)": 136
    },
    {
        "Altitude(m)": 703911.2806886864,
        "Argument of Periapsis(deg)": 0.008212876855620568,
        "Eccentricity": 0.0,
        "Inclination(deg)": 45.0,
        "Latitude(deg)": 27.76620130129503,
        "Longitude(deg)": 131.02834017430447,
        "Mean Anomaly(deg)": 41.04335621423619,
        "RAAN(deg)": 199.992247284317,
        "Satellite Name": "Constellation 1 882",
        "Satellite Number": 882,
        "Semi-Major Axis(m)": 7083131.272910544,
        "Time(s)": 137
    },
    {
        "Altitude(m)": 703916.6830010108,
        "Argument of Periapsis(deg)": 0.008272824861865974,
        "Eccentricity": 0.0,
        "Inclination(deg)": 45.0,
        "Latitude(deg)": 27.80294356558536,
        "Longitude(deg)": 131.07892718982055,
        "Mean Anomaly(deg)": 41.10405735448605,
        "RAAN(deg)": 199.99219069515144,
        "Satellite Name": "Constellation 1 882",
        "Satellite Number": 882,
        "Semi-Major Axis(m)": 7083131.272910544,
        "Time(s)": 138
    },
    {
        "Altitude(m)": 703922.092019756,
        "Argument of Periapsis(deg)": 0.00833277286811138,
        "Eccentricity": 0.0,
        "Inclination(deg)": 45.0,
        "Latitude(deg)": 27.839663974297743,
        "Longitude(deg)": 131.1295509854985,
        "Mean Anomaly(deg)": 41.16475849473599,
        "RAAN(deg)": 199.99213410598583,
        "Satellite Name": "Constellation 1 882",
        "Satellite Number": 882,
        "Semi-Major Axis(m)": 7083131.272910544,
        "Time(s)": 139
    },
    {
        "Altitude(m)": 703927.5077062213,
        "Argument of Periapsis(deg)": 0.008392720874356788,
        "Eccentricity": 0.0,
        "Inclination(deg)": 45.0,
        "Latitude(deg)": 27.87636247934805,
        "Longitude(deg)": 131.180211621379,
        "Mean Anomaly(deg)": 41.225459634985846,
        "RAAN(deg)": 199.99207751682027,
        "Satellite Name": "Constellation 1 882",
        "Satellite Number": 882,
        "Semi-Major Axis(m)": 7083131.272910544,
        "Time(s)": 140
    },
    {
        "Altitude(m)": 703932.9300217044,
        "Argument of Periapsis(deg)": 0.008452668880602192,
        "Eccentricity": 0.0,
        "Inclination(deg)": 45.0,
        "Latitude(deg)": 27.913039032582752,
        "Longitude(deg)": 131.23090898938224,
        "Mean Anomaly(deg)": 41.286160775235786,
        "RAAN(deg)": 199.9920209276547,
        "Satellite Name": "Constellation 1 882",
        "Satellite Number": 882,
        "Semi-Major Axis(m)": 7083131.272910544,
        "Time(s)": 141
    },
    {
        "Altitude(m)": 703938.3589274726,
        "Argument of Periapsis(deg)": 0.008512616886847598,
        "Eccentricity": 0.0,
        "Inclination(deg)": 45.0,
        "Latitude(deg)": 27.949693585777954,
        "Longitude(deg)": 131.2816434856956,
        "Mean Anomaly(deg)": 41.34686191548562,
        "RAAN(deg)": 199.99196433848914,
        "Satellite Name": "Constellation 1 882",
        "Satellite Number": 882,
        "Semi-Major Axis(m)": 7083131.272910544,
        "Time(s)": 142
    },
    {
        "Altitude(m)": 703943.7943847801,
        "Argument of Periapsis(deg)": 0.008572564893093004,
        "Eccentricity": 0.0,
        "Inclination(deg)": 45.0,
        "Latitude(deg)": 27.986326090640716,
        "Longitude(deg)": 131.33241500219054,
        "Mean Anomaly(deg)": 41.40756305573559,
        "RAAN(deg)": 199.99190774932353,
        "Satellite Name": "Constellation 1 882",
        "Satellite Number": 882,
        "Semi-Major Axis(m)": 7083131.272910544,
        "Time(s)": 143
    },
    {
        "Altitude(m)": 703949.2363548706,
        "Argument of Periapsis(deg)": 0.008632512899338408,
        "Eccentricity": 0.0,
        "Inclination(deg)": 45.0,
        "Latitude(deg)": 28.022936498807905,
        "Longitude(deg)": 131.38322359881064,
        "Mean Anomaly(deg)": 41.46826419598547,
        "RAAN(deg)": 199.99185116015798,
        "Satellite Name": "Constellation 1 882",
        "Satellite Number": 882,
        "Semi-Major Axis(m)": 7083131.272910544,
        "Time(s)": 144
    },
    {
        "Altitude(m)": 703954.6847989759,
        "Argument of Periapsis(deg)": 0.008692460905583814,
        "Eccentricity": 0.0,
        "Inclination(deg)": 45.0,
        "Latitude(deg)": 28.059524761846603,
        "Longitude(deg)": 131.4340693354739,
        "Mean Anomaly(deg)": 41.52896533623536,
        "RAAN(deg)": 199.99179457099243,
        "Satellite Name": "Constellation 1 882",
        "Satellite Number": 882,
        "Semi-Major Axis(m)": 7083131.272910544,
        "Time(s)": 145
    },
    {
        "Altitude(m)": 703960.1396782913,
        "Argument of Periapsis(deg)": 0.00875240891182922,
        "Eccentricity": 0.0,
        "Inclination(deg)": 45.0,
        "Latitude(deg)": 28.096090831253864,
        "Longitude(deg)": 131.4849522720723,
        "Mean Anomaly(deg)": 41.58966647648527,
        "RAAN(deg)": 199.99173798182684,
        "Satellite Name": "Constellation 1 882",
        "Satellite Number": 882,
        "Semi-Major Axis(m)": 7083131.272910544,
        "Time(s)": 146
    },
    {
        "Altitude(m)": 703965.6009540246,
        "Argument of Periapsis(deg)": 0.008812356918074627,
        "Eccentricity": 0.0,
        "Inclination(deg)": 45.0,
        "Latitude(deg)": 28.13263465845664,
        "Longitude(deg)": 131.53587246847115,
        "Mean Anomaly(deg)": 41.65036761673515,
        "RAAN(deg)": 199.9916813926613,
        "Satellite Name": "Constellation 1 882",
        "Satellite Number": 882,
        "Semi-Major Axis(m)": 7083131.272910544,
        "Time(s)": 147
    },
    {
        "Altitude(m)": 703971.0685873451,
        "Argument of Periapsis(deg)": 0.008872304924320031,
        "Eccentricity": 0.0,
        "Inclination(deg)": 45.0,
        "Latitude(deg)": 28.169156194812114,
        "Longitude(deg)": 131.58682981641175,
        "Mean Anomaly(deg)": 41.711068756985064,
        "RAAN(deg)": 199.99162480349568,
        "Satellite Name": "Constellation 1 882",
        "Satellite Number": 882,
        "Semi-Major Axis(m)": 7083131.272910544,
        "Time(s)": 148
    },
    {
        "Altitude(m)": 703976.5425394264,
        "Argument of Periapsis(deg)": 0.008932252930565437,
        "Eccentricity": 0.0,
        "Inclination(deg)": 45.0,
        "Latitude(deg)": 28.205655391606548,
        "Longitude(deg)": 131.6378247118992,
        "Mean Anomaly(deg)": 41.771769897234954,
        "RAAN(deg)": 199.99156821433013,
        "Satellite Name": "Constellation 1 882",
        "Satellite Number": 882,
        "Semi-Major Axis(m)": 7083131.272910544,
        "Time(s)": 149
    },
    {
        "Altitude(m)": 703982.0227714163,
        "Argument of Periapsis(deg)": 0.008992200936810843,
        "Eccentricity": 0.0,
        "Inclination(deg)": 45.0,
        "Latitude(deg)": 28.24213220005661,
        "Longitude(deg)": 131.6888570466191,
        "Mean Anomaly(deg)": 41.83247103748489,
        "RAAN(deg)": 199.99151162516458,
        "Satellite Name": "Constellation 1 882",
        "Satellite Number": 882,
        "Semi-Major Axis(m)": 7083131.272910544,
        "Time(s)": 150
    },
    {
        "Altitude(m)": 703987.5092444473,
        "Argument of Periapsis(deg)": 0.009052148943056249,
        "Eccentricity": 0.0,
        "Inclination(deg)": 45.0,
        "Latitude(deg)": 28.278586571308395,
        "Longitude(deg)": 131.73992688032544,
        "Mean Anomaly(deg)": 41.893172177734755,
        "RAAN(deg)": 199.991455035999,
        "Satellite Name": "Constellation 1 882",
        "Satellite Number": 882,
        "Semi-Major Axis(m)": 7083131.272910544,
        "Time(s)": 151
    }
]